CRE (WAAS/PRN 138)      
1 28868U 05036A   24157.11098631 -.00000072  00000+0  00000+0 0  9992
2 28868   2.4018  85.7825 0003473 351.1256 109.7680  1.00271708 68713
IOR-W (EGNOS/PRN 126)   
1 28899U 05044A   24157.16087906 -.00000260  00000+0  00000+0 0  9992
2 28899   4.1778  42.4070 0001743  44.3440   8.7307  1.00271086 68066
GSAT-8 (GAGAN/PRN 127)  
1 37605U 11022A   24157.14330049  .00000088  00000+0  00000+0 0  9994
2 37605   0.2092  91.9913 0003087 199.2692  69.4547  1.00271416 47800
LUCH 5A (SDCM/PRN 140)  
1 37951U 11074B   24157.52979742 -.00000050  00000+0  00000+0 0  9996
2 37951   6.8565  85.1590 0003800   1.0147 165.8492  1.00270637 45751
SES-5 (EGNOS/PRN 136)   
1 38652U 12036A   24156.95144111  .00000037  00000+0  00000+0 0  9998
2 38652   0.0359 317.6475 0001670 116.0572 167.6558  1.00270834 37049
GSAT-10 (GAGAN/PRN 128) 
1 38779U 12051B   24156.36157216 -.00000161  00000+0  00000+0 0  9999
2 38779   0.0228 256.9844 0001069  85.0622 124.4221  1.00270336 42661
LUCH 5B (SDCM/PRN 125)  
1 38977U 12061A   24157.05746375 -.00000139  00000+0  00000+0 0  9992
2 38977   8.8633  56.8156 0003398  87.9893 113.5531  1.00271746 42735
ASTRA 5B (EGNOS/PRN 123)
1 39617U 14011B   24156.13509799  .00000141  00000+0  00000+0 0  9998
2 39617   0.0424 337.2248 0001890  90.5588 257.4199  1.00273434 37214
LUCH 5V (SDCM/PRN 141)  
1 39727U 14023A   24157.43746924 -.00000267  00000+0  00000+0 0  9990
2 39727   3.2694  76.1268 0001753  46.1700  24.3062  1.00270362555078
GSAT-15 (GAGAN/PRN 139) 
1 41028U 15065A   24157.07939712 -.00000254  00000+0  00000+0 0  9999
2 41028   0.0188 293.0863 0003640 134.8771 308.1030  1.00268430 31428
E 117 W B (WAAS/PRN 131)
1 41589U 16038B   24156.40665442 -.00000007  00000+0  00000+0 0  9990
2 41589   0.0084 151.2065 0000260 313.0092 178.5171  1.00270458 29229
SES-15 (WAAS/PRN 133)   
1 42709U 17026A   24156.74885942  .00000064  00000+0  00000+0 0  9991
2 42709   0.0338  43.0779 0000100   4.4461 346.5894  1.00269736 26694
QZS-2 (QZSS/PRN 194)    
1 42738U 17028A   24156.58521524 -.00000196  00000+0  00000+0 0  9997
2 42738  40.5932 253.9432 0760445 269.1077  81.5588  1.00287539   173
QZS-3 (QZSS/PRN 199)    
1 42917U 17048A   24156.81368711 -.00000345  00000+0  00000+0 0  9997
2 42917   0.0574 163.6262 0001933 275.5207 234.4919  1.00267076 24817
QZS-4 (QZSS/PRN 195)    
1 42965U 17062A   24156.87502851 -.00000359  00000+0  00000+0 0  9992
2 42965  40.5192 352.9425 0746914 271.3164  81.8675  1.00255968 24371
BEIDOU-3 G1 (PRN 130)   
1 43683U 18085A   24156.94401265 -.00000276  00000+0  00000+0 0  9999
2 43683   2.1627 110.0404 0004069 354.5610 269.0132  1.00265936 20611
BEIDOU-3 G2 (PRN 144)   
1 45344U 20017A   24156.90904315 -.00000140  00000+0  00000+0 0  9993
2 45344   2.3014  29.1842 0000992 103.1997 168.7220  1.00272172 15811
BEIDOU-3 G3 (PRN 143)   
1 45807U 20040A   24157.56064878 -.00000351  00000+0  00000+0 0  9991
2 45807   0.7591  40.9124 0005531 284.4625 241.3864  1.00277325 14643
GALAXY 30 (WAAS/PRN 135)
1 46114U 20056C   24156.89269410  .00000041  00000+0  00000+0 0  9999
2 46114   0.0167   9.5168 0001933  60.8485  19.8028  1.00269493 13857
QZS-1R (QZSS/PRN 196)   
1 49336U 21096A   24156.82083587 -.00000279  00000+0  00000+0 0  9999
2 49336  35.9206  90.7152 0755377 271.2910 321.9343  1.00263163  9569
